NOAA 15                 
1 25338U 98030A   22019.53872167  .00000081  00000+0  52135-4 0  9992
2 25338  98.6615  50.8939 0010578  17.3391 342.8148 14.26083574232048
DMSP 5D-3 F15 (USA 147) 
1 25991U 99067A   22019.51517001  .00000110  00000+0  78644-4 0  9995
2 25991  99.0404   8.6427 0009234 249.7712 218.6110 14.16492908142708
METEOSAT-8 (MSG-1)      
1 27509U 02040B   22019.24861101  .00000145  00000+0  00000+0 0  9994
2 27509   7.7626  51.4394 0000494 351.8299 206.2994  1.00267971 71107
DMSP 5D-3 F16 (USA 172) 
1 28054U 03048A   22019.54671128  .00000003  00000+0  25396-4 0  9993
2 28054  98.9757   9.6867 0007777  25.4456  79.8571 14.13648447941986
NOAA 18                 
1 28654U 05018A   22019.47304055  .00000164  00000+0  11247-3 0  9999
2 28654  98.9688  89.9168 0014652  36.1184 324.0974 14.12678692859037
METEOSAT-9 (MSG-2)      
1 28912U 05049B   22019.27513321  .00000025  00000+0  00000+0 0  9993
2 28912   5.6864  67.2400 0001586 212.6168 301.0994  1.00271726 58935
FORMOSAT-3 FM6          
1 29047U 06011A   22019.15796281  .00000381  00000+0  16504-3 0  9993
2 29047  71.9790   4.6110 0048901 142.5579 217.8982 14.28884221824274
FORMOSAT-3 FM1          
1 29048U 06011B   22019.40111923  .00000220  00000+0  10247-3 0  9996
2 29048  71.9663 274.3505 0041775  99.8490 260.7367 14.28845780826752
FORMOSAT-3 FM5          
1 29049U 06011C   22019.51036703  .00000167  00000+0  81778-4 0  9999
2 29049  72.0205  89.0843 0032982 122.2139 238.2203 14.28928041822582
FORMOSAT-3 FM3          
1 29050U 06011D   22019.47665752  .00000536  00000+0  12201-3 0  9992
2 29050  72.0150 175.7463 0050181 346.4245  13.5554 14.59214397841178
FORMOSAT-3 FM4          
1 29051U 06011E   22019.14655409  .00000203  00000+0  94377-4 0  9991
2 29051  72.0060 350.7502 0068175 358.6893   1.4053 14.28960941825131
FORMOSAT-3 FM2          
1 29052U 06011F   22018.82320961  .00000198  00000+0  93345-4 0  9995
2 29052  72.0341  67.3503 0037908  78.5429 281.9962 14.29069580822534
EWS-G1 (GOES 13)        
1 29155U 06018A   22018.82722123  .00000046  00000+0  00000+0 0  9995
2 29155   0.4062  99.8600 0005889 151.9698 225.8755  1.00275618 27235
METOP-A                 
1 29499U 06044A   22018.90652778  .00000613  00000+0  89799-4 0  9999
2 29499  98.4717  58.6347 0200016 116.5146 234.6171 14.66892850788744
DMSP 5D-3 F17 (USA 191) 
1 29522U 06050A   22019.48839235  .00000064  00000+0  56304-4 0  9998
2 29522  98.7746  37.2762 0009205 329.9169  30.1474 14.14065650784858
FENGYUN 3A              
1 32958U 08026A   22019.51488786  .00000044  00000+0  41002-4 0  9992
2 32958  98.4817 348.4081 0009875  93.3924 266.8382 14.18684038707218
FENGYUN 2E              
1 33463U 08066A   22019.54454267 -.00000193  00000+0  00000+0 0  9992
2 33463   5.5732  66.1523 0003756 334.4637   0.9236  1.00266179 47943
NOAA 19                 
1 33591U 09005A   22019.52852462  .00000088  00000+0  73099-4 0  9990
2 33591  99.1663  50.4033 0013109 244.6260 115.3554 14.12523510667423
GOES 14                 
1 35491U 09033A   22018.66955178 -.00000080  00000+0  00000+0 0  9994
2 35491   0.0689 300.5334 0014434 287.7821  26.3310  1.00271301 45960
METEOR-M 1              
1 35865U 09049A   22019.54027486  .00000042  00000+0  38032-4 0  9994
2 35865  98.5084 354.9807 0001480 323.8313  36.2765 14.22300523640523
DMSP 5D-3 F18 (USA 210) 
1 35951U 09057A   22019.53848635  .00000156  00000+0  10588-3 0  9996
2 35951  98.7055   2.7357 0011534 146.5785 213.6118 14.13433674632080
GOES 15                 
1 36411U 10008A   22018.64921012  .00000068  00000+0  00000+0 0  9994
2 36411   0.0899 268.4166 0000995  64.2918 250.6591  1.00271332 43520
COMS 1                  
1 36744U 10032A   22019.46368890 -.00000333  00000+0  00000+0 0  9996
2 36744   0.6974  96.1046 0001127 214.9024 102.9170  1.00270943 42519
FENGYUN 3B              
1 37214U 10059A   22019.42694528 -.00000012  00000+0  17856-4 0  9990
2 37214  99.0902  22.7654 0023135  56.7256 303.6127 14.14241582579891
SUOMI NPP               
1 37849U 11061A   22019.48774628  .00000034  00000+0  36643-4 0  9992
2 37849  98.7196 320.2155 0001417  76.4532  35.7052 14.19574066530059
FENGYUN 2F              
1 38049U 12002A   22018.91855028 -.00000348  00000+0  00000+0 0  9994
2 38049   3.4297  80.8075 0005074 353.4542 126.8313  1.00278573 36748
METEOSAT-10 (MSG-3)     
1 38552U 12035B   22019.17055063  .00000073  00000+0  00000+0 0  9993
2 38552   1.3351  30.7601 0000523 239.1135 279.3931  1.00278460 35076
METOP-B                 
1 38771U 12049A   22019.42896991  .00000059  00000+0  47025-4 0  9999
2 38771  98.6872  81.4556 0002144 104.3336  87.0072 14.21503318484556
FENGYUN 3C              
1 39260U 13052A   22019.37717494  .00000068  00000+0  55244-4 0  9994
2 39260  98.4739  54.9044 0010972 350.8946   9.2030 14.15895006430822
METEOR-M 2              
1 40069U 14037A   22019.43903673  .00000026  00000+0  31257-4 0  9992
2 40069  98.4435  43.9567 0006579  43.8071 316.3630 14.20695787390708
HIMAWARI-8              
1 40267U 14060A   22019.45813178 -.00000264  00000+0  00000+0 0  9992
2 40267   0.0159  55.6656 0001037 256.1438 112.6154  1.00269338 26728
FENGYUN 2G              
1 40367U 14090A   22019.04495632 -.00000293  00000+0  00000+0 0  9994
2 40367   1.5609  90.8913 0003225 316.2943 187.1587  1.00275910 25899
METEOSAT-11 (MSG-4)     
1 40732U 15034A   22019.09676396  .00000005  00000+0  00000+0 0  9992
2 40732   0.2412 328.0551 0001060 113.8120  71.0023  1.00273389 23881
ELEKTRO-L 2             
1 41105U 15074A   22019.38109559 -.00000106  00000+0  00000+0 0  9998
2 41105   2.6154  89.9021 0001584 138.7086  12.8650  1.00271402 22374
HIMAWARI-9              
1 41836U 16064A   22019.55553218 -.00000264  00000+0  00000+0 0  9998
2 41836   0.0289 240.4792 0001456 115.4768 103.6816  1.00269336 19161
GOES 16                 
1 41866U 16071A   22019.54424537 -.00000237  00000+0  00000+0 0  9999
2 41866   0.0882 257.1320 0001161  73.6227 268.8867  1.00271125 18969
FENGYUN 4A              
1 41882U 16077A   22019.27930553 -.00000317  00000+0  00000+0 0  9992
2 41882   0.0541  64.6364 0005900 352.9519 266.1104  1.00266945 18835
CYGFM05                 
1 41884U 16078A   22019.20049599  .00002141  00000+0  11202-3 0  9995
2 41884  34.9572  50.7153 0015686 196.6538 163.3660 15.15448266282225
CYGFM04                 
1 41885U 16078B   22018.77690510  .00001915  00000+0  99021-4 0  9996
2 41885  34.9506  43.4048 0014217 208.2043 151.7900 15.15954320282091
CYGFM02                 
1 41886U 16078C   22018.76995989  .00001990  00000+0  10279-3 0  9994
2 41886  34.9597  45.5846 0014892 202.5948 157.4109 15.15965547282177
CYGFM01                 
1 41887U 16078D   22019.18096254  .00001919  00000+0  10122-3 0  9997
2 41887  34.9540  52.9541 0016109 195.9975 164.0229 15.15225307282190
CYGFM08                 
1 41888U 16078E   22018.48496313  .00001924  00000+0  10028-3 0  9991
2 41888  34.9510  50.6082 0015350 200.4364 159.5734 15.15650437282099
CYGFM06                 
1 41889U 16078F   22018.75168597  .00001584  00000+0  82108-4 0  9993
2 41889  34.9591  44.4062 0013855 202.2108 157.8004 15.15986780282243
CYGFM07                 
1 41890U 16078G   22018.46759737  .00001952  00000+0  10096-3 0  9990
2 41890  34.9529  45.0091 0013637 204.2000 155.8072 15.15942324282054
CYGFM03                 
1 41891U 16078H   22019.12420851  .00001994  00000+0  10310-3 0  9992
2 41891  34.9562  41.3485 0013209 208.1785 151.8213 15.15940755282291
FENGYUN 3D              
1 43010U 17072A   22019.45162438  .00000036  00000+0  38312-4 0  9991
2 43010  98.7994 324.9286 0001961   1.5918 358.5263 14.19178091216632
NOAA 20                 
1 43013U 17073A   22019.50005144  .00000043  00000+0  41273-4 0  9999
2 43013  98.7436 320.0627 0001413  98.9406 261.1930 14.19524785216091
GOES 17                 
1 43226U 18022A   22018.68804387  .00000110  00000+0  00000+0 0  9997
2 43226   0.0624 245.2778 0000567  58.6752 284.5785  1.00270925 14276
FENGYUN 2H              
1 43491U 18050A   22019.47145375 -.00000114  00000+0  00000+0 0  9990
2 43491   0.7734 100.8714 0002648  29.1399 237.3766  1.00276752 13376
METOP-C                 
1 43689U 18087A   22019.42861605  .00000064  00000+0  49221-4 0  9991
2 43689  98.7069  81.6516 0003928 108.1269 252.0336 14.21489867166135
GEO-KOMPSAT-2A          
1 43823U 18100A   22019.40952876 -.00000332  00000+0  00000+0 0  9992
2 43823   0.0263 174.9097 0000763 205.4909  14.0412  1.00269847 11523
METEOR-M2 2             
1 44387U 19038A   22019.44146699  .00000000  00000+0  19290-4 0  9998
2 44387  98.7018 341.5872 0001822  29.3115 330.8166 14.23697424132202
FENGYUN 3E              
1 49008U 21062A   22019.46171453  .00000016  00000+0  27880-4 0  9992
2 49008  98.7078  23.7849 0003009  73.8917 286.2592 14.19818462 28178
